{
  "type": "FeatureCollection",
  "features": [
    {
      "type": "Feature",
      "properties": {
        "norad_id": 66601,
        "name": "STARLINK-35978",
        "group": "last-30-days",
        "lat": -29.817393403863868,
        "lon": 166.12514579906974,
        "alt_km": 416.8376434459069,
        "timestamp": "2025-12-10T18:56:58.833631+00:00",
        "meta_object_name": "STARLINK-35978",
        "meta_object_id": "2025-270P",
        "meta_epoch": "2025-12-10T12:00:02.998944",
        "meta_mean_motion": 15.51054321,
        "meta_eccentricity": 0.0002099,
        "meta_inclination": 42.9998,
        "meta_ra_of_asc_node": 205.7737,
        "meta_arg_of_pericenter": 254.6801,
        "meta_mean_anomaly": 240.1162,
        "meta_ephemeris_type": 0,
        "meta_classification_type": "U",
        "meta_norad_cat_id": 66601,
        "meta_element_set_no": 999,
        "meta_rev_at_epoch": 388,
        "meta_bstar": -0.013021,
        "meta_mean_motion_dot": -0.00719651,
        "meta_mean_motion_ddot": 0,
        "tle_line1": "1 66601U 25270P   25344.50003471 -.00719651  00000+0 -13021-1 0  9991",
        "tle_line2": "2 66601  42.9998 205.7737 0002099 254.6801 240.1162 15.51054321  3881"
      },
      "geometry": {
        "type": "Point",
        "coordinates": [
          166.12514579906974,
          -29.817393403863868
        ]
      }
    },
    {
      "type": "Feature",
      "properties": {
        "norad_id": 66602,
        "name": "STARLINK-36050",
        "group": "last-30-days",
        "lat": -28.774768010362187,
        "lon": 167.9628812388152,
        "alt_km": 416.7875087805842,
        "timestamp": "2025-12-10T18:56:58.833655+00:00",
        "meta_object_name": "STARLINK-36050",
        "meta_object_id": "2025-270Q",
        "meta_epoch": "2025-12-10T12:00:02.998944",
        "meta_mean_motion": 15.5104464,
        "meta_eccentricity": 0.0001969,
        "meta_inclination": 42.9998,
        "meta_ra_of_asc_node": 205.7684,
        "meta_arg_of_pericenter": 258.6235,
        "meta_mean_anomaly": 238.0996,
        "meta_ephemeris_type": 0,
        "meta_classification_type": "U",
        "meta_norad_cat_id": 66602,
        "meta_element_set_no": 999,
        "meta_rev_at_epoch": 394,
        "meta_bstar": -0.01286,
        "meta_mean_motion_dot": -0.00702274,
        "meta_mean_motion_ddot": 0,
        "tle_line1": "1 66602U 25270Q   25344.50003471 -.00702274  00000+0 -12860-1 0  9995",
        "tle_line2": "2 66602  42.9998 205.7684 0001969 258.6235 238.0996 15.51044640  3944"
      },
      "geometry": {
        "type": "Point",
        "coordinates": [
          167.9628812388152,
          -28.774768010362187
        ]
      }
    },
    {
      "type": "Feature",
      "properties": {
        "norad_id": 66603,
        "name": "STARLINK-36048",
        "group": "last-30-days",
        "lat": -27.715094425518984,
        "lon": 169.75120287235458,
        "alt_km": 417.1643201785746,
        "timestamp": "2025-12-10T18:56:58.833666+00:00",
        "meta_object_name": "STARLINK-36048",
        "meta_object_id": "2025-270R",
        "meta_epoch": "2025-12-10T12:00:02.998944",
        "meta_mean_motion": 15.51055336,
        "meta_eccentricity": 0.0001849,
        "meta_inclination": 42.9997,
        "meta_ra_of_asc_node": 205.7631,
        "meta_arg_of_pericenter": 244.1324,
        "meta_mean_anomaly": 254.4982,
        "meta_ephemeris_type": 0,
        "meta_classification_type": "U",
        "meta_norad_cat_id": 66603,
        "meta_element_set_no": 999,
        "meta_rev_at_epoch": 394,
        "meta_bstar": -0.013763,
        "meta_mean_motion_dot": -0.00757506,
        "meta_mean_motion_ddot": 0,
        "tle_line1": "1 66603U 25270R   25344.50003471 -.00757506  00000+0 -13763-1 0  9997",
        "tle_line2": "2 66603  42.9997 205.7631 0001849 244.1324 254.4982 15.51055336  3943"
      },
      "geometry": {
        "type": "Point",
        "coordinates": [
          169.75120287235458,
          -27.715094425518984
        ]
      }
    },
    {
      "type": "Feature",
      "properties": {
        "norad_id": 66604,
        "name": "STARLINK-35977",
        "group": "last-30-days",
        "lat": -26.62614530449275,
        "lon": 171.51557189555524,
        "alt_km": 417.09645213816293,
        "timestamp": "2025-12-10T18:56:58.833677+00:00",
        "meta_object_name": "STARLINK-35977",
        "meta_object_id": "2025-270S",
        "meta_epoch": "2025-12-10T12:00:02.998944",
        "meta_mean_motion": 15.5104998,
        "meta_eccentricity": 0.0001756,
        "meta_inclination": 42.9996,
        "meta_ra_of_asc_node": 205.7582,
        "meta_arg_of_pericenter": 246.5594,
        "meta_mean_anomaly": 253.9909,
        "meta_ephemeris_type": 0,
        "meta_classification_type": "U",
        "meta_norad_cat_id": 66604,
        "meta_element_set_no": 999,
        "meta_rev_at_epoch": 404,
        "meta_bstar": -0.013606,
        "meta_mean_motion_dot": -0.00749354,
        "meta_mean_motion_ddot": 0,
        "tle_line1": "1 66604U 25270S   25344.50003471 -.00749354  00000+0 -13606-1 0  9996",
        "tle_line2": "2 66604  42.9996 205.7582 0001756 246.5594 253.9909 15.51049980  4043"
      },
      "geometry": {
        "type": "Point",
        "coordinates": [
          171.51557189555524,
          -26.62614530449275
        ]
      }
    },
    {
      "type": "Feature",
      "properties": {
        "norad_id": 66605,
        "name": "STARLINK-36052",
        "group": "last-30-days",
        "lat": -25.50484760464951,
        "lon": 173.26390365595842,
        "alt_km": 416.7141737946795,
        "timestamp": "2025-12-10T18:56:58.833686+00:00",
        "meta_object_name": "STARLINK-36052",
        "meta_object_id": "2025-270T",
        "meta_epoch": "2025-12-10T12:00:02.998944",
        "meta_mean_motion": 15.51062882,
        "meta_eccentricity": 0.000205,
        "meta_inclination": 42.9997,
        "meta_ra_of_asc_node": 205.7541,
        "meta_arg_of_pericenter": 255.3644,
        "meta_mean_anomaly": 247.0997,
        "meta_ephemeris_type": 0,
        "meta_classification_type": "U",
        "meta_norad_cat_id": 66605,
        "meta_element_set_no": 999,
        "meta_rev_at_epoch": 404,
        "meta_bstar": -0.013304,
        "meta_mean_motion_dot": -0.00734336,
        "meta_mean_motion_ddot": 0,
        "tle_line1": "1 66605U 25270T   25344.50003471 -.00734336  00000+0 -13304-1 0  9996",
        "tle_line2": "2 66605  42.9997 205.7541 0002050 255.3644 247.0997 15.51062882  4049"
      },
      "geometry": {
        "type": "Point",
        "coordinates": [
          173.26390365595842,
          -25.50484760464951
        ]
      }
    },
    {
      "type": "Feature",
      "properties": {
        "norad_id": 66606,
        "name": "STARLINK-36063",
        "group": "last-30-days",
        "lat": -23.23195102545223,
        "lon": 176.61962114127462,
        "alt_km": 416.9315707597516,
        "timestamp": "2025-12-10T18:56:58.833697+00:00",
        "meta_object_name": "STARLINK-36063",
        "meta_object_id": "2025-270U",
        "meta_epoch": "2025-12-10T12:00:02.998944",
        "meta_mean_motion": 15.51052372,
        "meta_eccentricity": 0.0001764,
        "meta_inclination": 42.9999,
        "meta_ra_of_asc_node": 205.7437,
        "meta_arg_of_pericenter": 247.6746,
        "meta_mean_anomaly": 258.6275,
        "meta_ephemeris_type": 0,
        "meta_classification_type": "U",
        "meta_norad_cat_id": 66606,
        "meta_element_set_no": 999,
        "meta_rev_at_epoch": 404,
        "meta_bstar": -0.013634,
        "meta_mean_motion_dot": -0.00750835,
        "meta_mean_motion_ddot": 0,
        "tle_line1": "1 66606U 25270U   25344.50003471 -.00750835  00000+0 -13634-1 0  9995",
        "tle_line2": "2 66606  42.9999 205.7437 0001764 247.6746 258.6275 15.51052372  4044"
      },
      "geometry": {
        "type": "Point",
        "coordinates": [
          176.61962114127462,
          -23.23195102545223
        ]
      }
    },
    {
      "type": "Feature",
      "properties": {
        "norad_id": 66607,
        "name": "STARLINK-35993",
        "group": "last-30-days",
        "lat": -24.37400093228852,
        "lon": 174.96260738123522,
        "alt_km": 416.6687231441265,
        "timestamp": "2025-12-10T18:56:58.833706+00:00",
        "meta_object_name": "STARLINK-35993",
        "meta_object_id": "2025-270V",
        "meta_epoch": "2025-12-10T12:00:02.998944",
        "meta_mean_motion": 15.51063045,
        "meta_eccentricity": 0.0001998,
        "meta_inclination": 42.9996,
        "meta_ra_of_asc_node": 205.7494,
        "meta_arg_of_pericenter": 256.1177,
        "meta_mean_anomaly": 248.2623,
        "meta_ephemeris_type": 0,
        "meta_classification_type": "U",
        "meta_norad_cat_id": 66607,
        "meta_element_set_no": 999,
        "meta_rev_at_epoch": 394,
        "meta_bstar": -0.013291,
        "meta_mean_motion_dot": -0.00733664,
        "meta_mean_motion_ddot": 0,
        "tle_line1": "1 66607U 25270V   25344.50003471 -.00733664  00000+0 -13291-1 0  9996",
        "tle_line2": "2 66607  42.9996 205.7494 0001998 256.1177 248.2623 15.51063045  3946"
      },
      "geometry": {
        "type": "Point",
        "coordinates": [
          174.96260738123522,
          -24.37400093228852
        ]
      }
    }
  ]
}